1 08820U 76039A   03129.59125803  .00000016  00000-0  10000-3 0  9273
2 08820 109.8096 168.3943 0044369 309.7002  49.9831  6.38664549374597
